start=new Date('2022-02-23T00:00:00.000Z').valueOf();
sats=[{"PERIAPSIS":"546.029","MEAN_MOTION":"15.06391853","REF_FRAME":"TEME","RA_OF_ASC_NODE":"97.0349","PERIOD":"95.593","EPOCH":"2022-02-22T19:50:31.111008","APOAPSIS":"548.448","DECAY_DATE":null,"MEAN_ELEMENT_THEORY":"SGP4","RCS_SIZE":"LARGE","NORAD_CAT_ID":"47997","OBJECT_TYPE":"PAYLOAD","CLASSIFICATION_TYPE":"U","MEAN_MOTION_DDOT":"0.0000000000000","INCLINATION":"53.0539","OBJECT_ID":"2021-024W","TLE_LINE2":"2 47997  53.0539  97.0349 0001746  66.0927 294.0244 15.06391853 52466","SEMIMAJOR_AXIS":"6925.374","CENTER_NAME":"EARTH","BSTAR":"0.00019959000000","ELEMENT_SET_NO":"999","SITE":"AFETR","MEAN_MOTION_DOT":"0.00002692","EPHEMERIS_TYPE":"0","COUNTRY_CODE":"US","OBJECT_NAME":"STARLINK-2266","MEAN_ANOMALY":"294.0244","TLE_LINE1":"1 47997U 21024W   22053.82674897  .00002692  00000-0  19959-3 0  9993","ARG_OF_PERICENTER":"66.0927","LAUNCH_DATE":"2021-03-24","REV_AT_EPOCH":"5246","FILE":"3314780","TIME_SYSTEM":"UTC","GP_ID":"196684218","ECCENTRICITY":"0.00017460"},{"DECAY_DATE":null,"MEAN_ELEMENT_THEORY":"SGP4","RCS_SIZE":"LARGE","NORAD_CAT_ID":"47998","OBJECT_TYPE":"PAYLOAD","CLASSIFICATION_TYPE":"U","MEAN_MOTION_DDOT":"0.0000000000000","PERIAPSIS":"546.026","MEAN_MOTION":"15.06391370","REF_FRAME":"TEME","RA_OF_ASC_NODE":"72.3836","PERIOD":"95.593","EPOCH":"2022-02-22T17:53:02.173920","APOAPSIS":"548.454","ARG_OF_PERICENTER":"58.3243","REV_AT_EPOCH":"5274","LAUNCH_DATE":"2021-03-24","TIME_SYSTEM":"UTC","FILE":"3314780","GP_ID":"196684469","ECCENTRICITY":"0.00017530","OBJECT_ID":"2021-024X","INCLINATION":"53.0553","TLE_LINE2":"2 47998  53.0553  72.3836 0001753  58.3243 301.7916 15.06391370 52740","SEMIMAJOR_AXIS":"6925.375","CENTER_NAME":"EARTH","BSTAR":"-0.00001110200000","SITE":"AFETR","ELEMENT_SET_NO":"999","MEAN_MOTION_DOT":"-0.00000447","EPHEMERIS_TYPE":"0","COUNTRY_CODE":"US","OBJECT_NAME":"STARLINK-2296","MEAN_ANOMALY":"301.7916","TLE_LINE1":"1 47998U 21024X   22053.74516405 -.00000447  00000-0 -11102-4 0  9996"},{"APOAPSIS":"548.229","PERIOD":"95.592","RA_OF_ASC_NODE":"41.2482","EPOCH":"2022-02-23T00:00:00.999648","REF_FRAME":"TEME","PERIAPSIS":"546.151","MEAN_MOTION":"15.06407667","CLASSIFICATION_TYPE":"U","MEAN_MOTION_DDOT":"0.0000000000000","OBJECT_TYPE":"PAYLOAD","NORAD_CAT_ID":"47999","DECAY_DATE":null,"MEAN_ELEMENT_THEORY":"SGP4","RCS_SIZE":"LARGE","COUNTRY_CODE":"US","OBJECT_NAME":"STARLINK-2218","TLE_LINE1":"1 47999U 21024Y   22054.00001157  .00006182  00000-0  43343-3 0  9991","MEAN_ANOMALY":"20.5954","SITE":"AFETR","ELEMENT_SET_NO":"999","MEAN_MOTION_DOT":"0.00006182","EPHEMERIS_TYPE":"0","TLE_LINE2":"2 47999  53.0569  41.2482 0001500  67.2805  20.5954 15.06407667  3575","SEMIMAJOR_AXIS":"6925.325","CENTER_NAME":"EARTH","BSTAR":"0.00043343000000","OBJECT_ID":"2021-024Y","INCLINATION":"53.0569","GP_ID":"196684720","ECCENTRICITY":"0.00015000","FILE":"3314780","TIME_SYSTEM":"UTC","LAUNCH_DATE":"2021-03-24","REV_AT_EPOCH":"357","ARG_OF_PERICENTER":"67.2805"},{"INCLINATION":"53.0563","OBJECT_ID":"2021-024Z","CENTER_NAME":"EARTH","BSTAR":"-0.00353140000000","TLE_LINE2":"2 48000  53.0563  26.2347 0002123  48.2638 162.1589 15.06436568  3570","SEMIMAJOR_AXIS":"6925.236","SITE":"AFETR","MEAN_MOTION_DOT":"-0.00052549","ELEMENT_SET_NO":"999","EPHEMERIS_TYPE":"0","OBJECT_NAME":"STARLINK-2270","TLE_LINE1":"1 48000U 21024Z   22054.00001157 -.00052549  00000-0 -35314-2 0  9993","MEAN_ANOMALY":"162.1589","COUNTRY_CODE":"US","ARG_OF_PERICENTER":"48.2638","LAUNCH_DATE":"2021-03-24","REV_AT_EPOCH":"357","FILE":"3314780","TIME_SYSTEM":"UTC","ECCENTRICITY":"0.00021230","GP_ID":"196683468","MEAN_MOTION":"15.06436568","PERIAPSIS":"545.631","REF_FRAME":"TEME","EPOCH":"2022-02-23T00:00:00.999648","PERIOD":"95.590","RA_OF_ASC_NODE":"26.2347","APOAPSIS":"548.572","MEAN_ELEMENT_THEORY":"SGP4","RCS_SIZE":"LARGE","DECAY_DATE":null,"NORAD_CAT_ID":"48000","OBJECT_TYPE":"PAYLOAD","CLASSIFICATION_TYPE":"U","MEAN_MOTION_DDOT":"0.0000000000000"},{"OBJECT_TYPE":"PAYLOAD","MEAN_MOTION_DDOT":"0.0000000000000","CLASSIFICATION_TYPE":"U","DECAY_DATE":null,"RCS_SIZE":"LARGE","MEAN_ELEMENT_THEORY":"SGP4","NORAD_CAT_ID":"48002","RA_OF_ASC_NODE":"46.2370","PERIOD":"95.593","EPOCH":"2022-02-23T00:00:00.999648","APOAPSIS":"548.418","PERIAPSIS":"546.085","MEAN_MOTION":"15.06387612","REF_FRAME":"TEME","TIME_SYSTEM":"UTC","FILE":"3314780","GP_ID":"196683718","ECCENTRICITY":"0.00016850","ARG_OF_PERICENTER":"64.0496","LAUNCH_DATE":"2021-03-24","REV_AT_EPOCH":"357","EPHEMERIS_TYPE":"0","SITE":"AFETR","ELEMENT_SET_NO":"999","MEAN_MOTION_DOT":"0.00013503","COUNTRY_CODE":"US","MEAN_ANOMALY":"56.3149","TLE_LINE1":"1 48002U 21024AB  22054.00001157  .00013503  00000-0  92398-3 0  9996","OBJECT_NAME":"STARLINK-2265","OBJECT_ID":"2021-024AB","INCLINATION":"53.0554","SEMIMAJOR_AXIS":"6925.387","TLE_LINE2":"2 48002  53.0554  46.2370 0001685  64.0496  56.3149 15.06387612  3571","BSTAR":"0.00092398000000","CENTER_NAME":"EARTH"},{"CENTER_NAME":"EARTH","BSTAR":"0.00027538000000","TLE_LINE2":"2 48003  53.0541 122.7508 0001559  64.8469 295.2682 15.06390739 52023","SEMIMAJOR_AXIS":"6925.377","OBJECT_ID":"2021-024AC","INCLINATION":"53.0541","OBJECT_NAME":"STARLINK-2263","TLE_LINE1":"1 48003U 21024AC  22053.66410790  .00003822  00000-0  27538-3 0  9992","MEAN_ANOMALY":"295.2682","COUNTRY_CODE":"US","SITE":"AFETR","ELEMENT_SET_NO":"999","MEAN_MOTION_DOT":"0.00003822","EPHEMERIS_TYPE":"0","REV_AT_EPOCH":"5202","LAUNCH_DATE":"2021-03-24","ARG_OF_PERICENTER":"64.8469","ECCENTRICITY":"0.00015590","GP_ID":"196684970","TIME_SYSTEM":"UTC","FILE":"3314780","REF_FRAME":"TEME","MEAN_MOTION":"15.06390739","PERIAPSIS":"546.162","APOAPSIS":"548.322","EPOCH":"2022-02-22T15:56:18.922560","PERIOD":"95.593","RA_OF_ASC_NODE":"122.7508","NORAD_CAT_ID":"48003","MEAN_ELEMENT_THEORY":"SGP4","RCS_SIZE":"LARGE","DECAY_DATE":null,"CLASSIFICATION_TYPE":"U","MEAN_MOTION_DDOT":"0.0000000000000","OBJECT_TYPE":"PAYLOAD"},{"OBJECT_NAME":"STARLINK-2254","MEAN_ANOMALY":"306.1153","TLE_LINE1":"1 48005U 21024AE  22053.84011118 -.00000935  00000-0 -43864-4 0  9990","COUNTRY_CODE":"US","SITE":"AFETR","MEAN_MOTION_DOT":"-0.00000935","ELEMENT_SET_NO":"999","EPHEMERIS_TYPE":"0","CENTER_NAME":"EARTH","BSTAR":"-0.00004386400000","TLE_LINE2":"2 48005  53.0535  91.9670 0001677  53.9991 306.1153 15.06393808 52479","SEMIMAJOR_AXIS":"6925.368","INCLINATION":"53.0535","OBJECT_ID":"2021-024AE","ECCENTRICITY":"0.00016770","GP_ID":"196685221","FILE":"3314780","TIME_SYSTEM":"UTC","REV_AT_EPOCH":"5247","LAUNCH_DATE":"2021-03-24","ARG_OF_PERICENTER":"53.9991","APOAPSIS":"548.394","EPOCH":"2022-02-22T20:09:45.605952","PERIOD":"95.593","RA_OF_ASC_NODE":"91.9670","REF_FRAME":"TEME","MEAN_MOTION":"15.06393808","PERIAPSIS":"546.071","CLASSIFICATION_TYPE":"U","MEAN_MOTION_DDOT":"0.0000000000000","OBJECT_TYPE":"PAYLOAD","NORAD_CAT_ID":"48005","MEAN_ELEMENT_THEORY":"SGP4","RCS_SIZE":"LARGE","DECAY_DATE":null},{"OBJECT_TYPE":"PAYLOAD","CLASSIFICATION_TYPE":"U","MEAN_MOTION_DDOT":"0.0000000000000","DECAY_DATE":null,"MEAN_ELEMENT_THEORY":"SGP4","RCS_SIZE":"LARGE","NORAD_CAT_ID":"48008","PERIOD":"95.592","RA_OF_ASC_NODE":"26.2315","EPOCH":"2022-02-23T00:00:00.999648","APOAPSIS":"548.238","PERIAPSIS":"546.142","MEAN_MOTION":"15.06407732","REF_FRAME":"TEME","FILE":"3314780","TIME_SYSTEM":"UTC","GP_ID":"196683969","ECCENTRICITY":"0.00015130","ARG_OF_PERICENTER":"70.5251","REV_AT_EPOCH":"357","LAUNCH_DATE":"2021-03-24","MEAN_MOTION_DOT":"-0.00007682","SITE":"AFETR","ELEMENT_SET_NO":"999","EPHEMERIS_TYPE":"0","COUNTRY_CODE":"US","OBJECT_NAME":"STARLINK-2271","MEAN_ANOMALY":"319.8345","TLE_LINE1":"1 48008U 21024AH  22054.00001157 -.00007682  00000-0 -49727-3 0  9993","OBJECT_ID":"2021-024AH","INCLINATION":"53.0559","TLE_LINE2":"2 48008  53.0559  26.2315 0001513  70.5251 319.8345 15.06407732  3571","SEMIMAJOR_AXIS":"6925.325","CENTER_NAME":"EARTH","BSTAR":"-0.00049727000000"},{"NORAD_CAT_ID":"48009","MEAN_ELEMENT_THEORY":"SGP4","RCS_SIZE":"LARGE","DECAY_DATE":null,"CLASSIFICATION_TYPE":"U","MEAN_MOTION_DDOT":"0.0000000000000","OBJECT_TYPE":"PAYLOAD","REF_FRAME":"TEME","MEAN_MOTION":"15.06403092","PERIAPSIS":"545.982","APOAPSIS":"548.426","EPOCH":"2022-02-22T20:29:38.852160","RA_OF_ASC_NODE":"101.8674","PERIOD":"95.592","REV_AT_EPOCH":"5234","LAUNCH_DATE":"2021-03-24","ARG_OF_PERICENTER":"48.4604","ECCENTRICITY":"0.00017650","GP_ID":"196684219","FILE":"3314780","TIME_SYSTEM":"UTC","CENTER_NAME":"EARTH","BSTAR":"0.00016065000000","TLE_LINE2":"2 48009  53.0556 101.8674 0001765  48.4604 311.6536 15.06403092 52348","SEMIMAJOR_AXIS":"6925.339","INCLINATION":"53.0556","OBJECT_ID":"2021-024AJ","OBJECT_NAME":"STARLINK-2153","TLE_LINE1":"1 48009U 21024AJ  22053.85392190  .00002112  00000-0  16065-3 0  9996","MEAN_ANOMALY":"311.6536","COUNTRY_CODE":"US","SITE":"AFETR","ELEMENT_SET_NO":"999","MEAN_MOTION_DOT":"0.00002112","EPHEMERIS_TYPE":"0"},{"REV_AT_EPOCH":"5202","LAUNCH_DATE":"2021-03-24","ARG_OF_PERICENTER":"59.6176","GP_ID":"196684470","ECCENTRICITY":"0.00014320","TIME_SYSTEM":"UTC","FILE":"3314780","TLE_LINE2":"2 48010  53.0542 123.0293 0001432  59.6176 300.4954 15.06387347 52026","SEMIMAJOR_AXIS":"6925.387","CENTER_NAME":"EARTH","BSTAR":"-0.00012965000000","OBJECT_ID":"2021-024AK","INCLINATION":"53.0542","COUNTRY_CODE":"US","OBJECT_NAME":"STARLINK-2226","MEAN_ANOMALY":"300.4954","TLE_LINE1":"1 48010U 21024AK  22053.60144240 -.00002211  00000-0 -12965-3 0  9999","ELEMENT_SET_NO":"999","SITE":"AFETR","MEAN_MOTION_DOT":"-0.00002211","EPHEMERIS_TYPE":"0","NORAD_CAT_ID":"48010","DECAY_DATE":null,"MEAN_ELEMENT_THEORY":"SGP4","RCS_SIZE":"LARGE","CLASSIFICATION_TYPE":"U","MEAN_MOTION_DDOT":"0.0000000000000","OBJECT_TYPE":"PAYLOAD","REF_FRAME":"TEME","PERIAPSIS":"546.261","MEAN_MOTION":"15.06387347","APOAPSIS":"548.244","PERIOD":"95.593","RA_OF_ASC_NODE":"123.0293","EPOCH":"2022-02-22T14:26:04.623360"}];
